{
  "type": "FeatureCollection",
  "features": [
    {
      "type": "Feature",
      "properties": {
        "norad_id": 66798,
        "name": "STARLINK-36041",
        "group": "last-30-days",
        "lat": -26.315484872124788,
        "lon": 89.23469279213336,
        "alt_km": 330.66604068326524,
        "timestamp": "2025-12-15T04:01:19.180968+00:00",
        "meta_object_name": "STARLINK-36041",
        "meta_object_id": "2025-278H",
        "meta_epoch": "2025-12-14T06:00:02.999808",
        "meta_mean_motion": 15.82985857,
        "meta_eccentricity": 0.00019274,
        "meta_inclination": 42.9971,
        "meta_ra_of_asc_node": 242.7983,
        "meta_arg_of_pericenter": 275.9987,
        "meta_mean_anomaly": 113.3683,
        "meta_ephemeris_type": 0,
        "meta_classification_type": "U",
        "meta_norad_cat_id": 66798,
        "meta_element_set_no": 999,
        "meta_rev_at_epoch": 304,
        "meta_bstar": -0.0064744785,
        "meta_mean_motion_dot": -0.01261904,
        "meta_mean_motion_ddot": 0,
        "tle_line1": "1 66798U 25278H   25348.25003472 -.01261904  00000+0 -64745-2 0  9997",
        "tle_line2": "2 66798  42.9971 242.7983 0001927 275.9987 113.3683 15.82985857  3041"
      },
      "geometry": {
        "type": "Point",
        "coordinates": [
          89.23469279213336,
          -26.315484872124788
        ]
      }
    },
    {
      "type": "Feature",
      "properties": {
        "norad_id": 66799,
        "name": "STARLINK-36044",
        "group": "last-30-days",
        "lat": -27.605008138523655,
        "lon": 91.30915019991136,
        "alt_km": 330.7408108701811,
        "timestamp": "2025-12-15T04:01:19.180978+00:00",
        "meta_object_name": "STARLINK-36044",
        "meta_object_id": "2025-278J",
        "meta_epoch": "2025-12-14T06:00:02.999808",
        "meta_mean_motion": 15.82963927,
        "meta_eccentricity": 0.00019672,
        "meta_inclination": 42.9969,
        "meta_ra_of_asc_node": 242.7925,
        "meta_arg_of_pericenter": 275.6306,
        "meta_mean_anomaly": 116.0746,
        "meta_ephemeris_type": 0,
        "meta_classification_type": "U",
        "meta_norad_cat_id": 66799,
        "meta_element_set_no": 999,
        "meta_rev_at_epoch": 320,
        "meta_bstar": -0.0064896767,
        "meta_mean_motion_dot": -0.01263376,
        "meta_mean_motion_ddot": 0,
        "tle_line1": "1 66799U 25278J   25348.25003472 -.01263376  00000+0 -64897-2 0  9991",
        "tle_line2": "2 66799  42.9969 242.7925 0001967 275.6306 116.0746 15.82963927  3203"
      },
      "geometry": {
        "type": "Point",
        "coordinates": [
          91.30915019991136,
          -27.605008138523655
        ]
      }
    },
    {
      "type": "Feature",
      "properties": {
        "norad_id": 66800,
        "name": "STARLINK-35996",
        "group": "last-30-days",
        "lat": -30.068925911963547,
        "lon": 95.57436288886244,
        "alt_km": 330.9549020818913,
        "timestamp": "2025-12-15T04:01:19.180988+00:00",
        "meta_object_name": "STARLINK-35996",
        "meta_object_id": "2025-278K",
        "meta_epoch": "2025-12-14T06:00:02.999808",
        "meta_mean_motion": 15.82931925,
        "meta_eccentricity": 0.0001856,
        "meta_inclination": 42.997,
        "meta_ra_of_asc_node": 242.7804,
        "meta_arg_of_pericenter": 273.5207,
        "meta_mean_anomaly": 122.8347,
        "meta_ephemeris_type": 0,
        "meta_classification_type": "U",
        "meta_norad_cat_id": 66800,
        "meta_element_set_no": 999,
        "meta_rev_at_epoch": 299,
        "meta_bstar": -0.006594931,
        "meta_mean_motion_dot": -0.01279634,
        "meta_mean_motion_ddot": 0,
        "tle_line1": "1 66800U 25278K   25348.25003472 -.01279634  00000+0 -65949-2 0  9997",
        "tle_line2": "2 66800  42.9970 242.7804 0001856 273.5207 122.8347 15.82931925  2998"
      },
      "geometry": {
        "type": "Point",
        "coordinates": [
          95.57436288886244,
          -30.068925911963547
        ]
      }
    },
    {
      "type": "Feature",
      "properties": {
        "norad_id": 66801,
        "name": "STARLINK-36080",
        "group": "last-30-days",
        "lat": -35.52343769752718,
        "lon": 107.14420640218421,
        "alt_km": 331.5986997127975,
        "timestamp": "2025-12-15T04:01:19.180998+00:00",
        "meta_object_name": "STARLINK-36080",
        "meta_object_id": "2025-278L",
        "meta_epoch": "2025-12-14T06:00:02.999808",
        "meta_mean_motion": 15.82850058,
        "meta_eccentricity": 0.00019314,
        "meta_inclination": 42.9971,
        "meta_ra_of_asc_node": 242.7506,
        "meta_arg_of_pericenter": 280.3023,
        "meta_mean_anomaly": 127.6263,
        "meta_ephemeris_type": 0,
        "meta_classification_type": "U",
        "meta_norad_cat_id": 66801,
        "meta_element_set_no": 999,
        "meta_rev_at_epoch": 320,
        "meta_bstar": -0.006828343,
        "meta_mean_motion_dot": -0.01314895,
        "meta_mean_motion_ddot": 0,
        "tle_line1": "1 66801U 25278L   25348.25003472 -.01314895  00000+0 -68283-2 0  9991",
        "tle_line2": "2 66801  42.9971 242.7506 0001931 280.3023 127.6263 15.82850058  3207"
      },
      "geometry": {
        "type": "Point",
        "coordinates": [
          107.14420640218421,
          -35.52343769752718
        ]
      }
    },
    {
      "type": "Feature",
      "properties": {
        "norad_id": 66802,
        "name": "STARLINK-35604",
        "group": "last-30-days",
        "lat": -28.79389096201138,
        "lon": 93.31271085293949,
        "alt_km": 330.9271657960726,
        "timestamp": "2025-12-15T04:01:19.181008+00:00",
        "meta_object_name": "STARLINK-35604",
        "meta_object_id": "2025-278M",
        "meta_epoch": "2025-12-14T06:00:02.999808",
        "meta_mean_motion": 15.82961047,
        "meta_eccentricity": 0.00019121,
        "meta_inclination": 42.997,
        "meta_ra_of_asc_node": 242.7868,
        "meta_arg_of_pericenter": 278.8346,
        "meta_mean_anomaly": 115.0361,
        "meta_ephemeris_type": 0,
        "meta_classification_type": "U",
        "meta_norad_cat_id": 66802,
        "meta_element_set_no": 999,
        "meta_rev_at_epoch": 320,
        "meta_bstar": -0.0065247264,
        "meta_mean_motion_dot": -0.01269207,
        "meta_mean_motion_ddot": 0,
        "tle_line1": "1 66802U 25278M   25348.25003472 -.01269207  00000+0 -65247-2 0  9995",
        "tle_line2": "2 66802  42.9970 242.7868 0001912 278.8346 115.0361 15.82961047  3208"
      },
      "geometry": {
        "type": "Point",
        "coordinates": [
          93.31271085293949,
          -28.79389096201138
        ]
      }
    },
    {
      "type": "Feature",
      "properties": {
        "norad_id": 66803,
        "name": "STARLINK-35565",
        "group": "last-30-days",
        "lat": -31.190321772875535,
        "lon": 97.67491902274062,
        "alt_km": 331.1077165687011,
        "timestamp": "2025-12-15T04:01:19.181018+00:00",
        "meta_object_name": "STARLINK-35565",
        "meta_object_id": "2025-278N",
        "meta_epoch": "2025-12-14T06:00:02.999808",
        "meta_mean_motion": 15.82923737,
        "meta_eccentricity": 0.00019046,
        "meta_inclination": 42.9971,
        "meta_ra_of_asc_node": 242.7751,
        "meta_arg_of_pericenter": 277.597,
        "meta_mean_anomaly": 120.9283,
        "meta_ephemeris_type": 0,
        "meta_classification_type": "U",
        "meta_norad_cat_id": 66803,
        "meta_element_set_no": 999,
        "meta_rev_at_epoch": 328,
        "meta_bstar": -0.0066106286,
        "meta_mean_motion_dot": -0.01281907,
        "meta_mean_motion_ddot": 0,
        "tle_line1": "1 66803U 25278N   25348.25003472 -.01281907  00000+0 -66106-2 0  9992",
        "tle_line2": "2 66803  42.9971 242.7751 0001904 277.5970 120.9283 15.82923737  3281"
      },
      "geometry": {
        "type": "Point",
        "coordinates": [
          97.67491902274062,
          -31.190321772875535
        ]
      }
    },
    {
      "type": "Feature",
      "properties": {
        "norad_id": 66804,
        "name": "STARLINK-36038",
        "group": "last-30-days",
        "lat": -32.41570445591262,
        "lon": 100.10936500302243,
        "alt_km": 331.18821089058565,
        "timestamp": "2025-12-15T04:01:19.181030+00:00",
        "meta_object_name": "STARLINK-36038",
        "meta_object_id": "2025-278P",
        "meta_epoch": "2025-12-14T06:00:02.999808",
        "meta_mean_motion": 15.82890614,
        "meta_eccentricity": 0.00019032,
        "meta_inclination": 42.9973,
        "meta_ra_of_asc_node": 242.7688,
        "meta_arg_of_pericenter": 275.3077,
        "meta_mean_anomaly": 125.7612,
        "meta_ephemeris_type": 0,
        "meta_classification_type": "U",
        "meta_norad_cat_id": 66804,
        "meta_element_set_no": 999,
        "meta_rev_at_epoch": 320,
        "meta_bstar": -0.0066592598,
        "meta_mean_motion_dot": -0.01288411,
        "meta_mean_motion_ddot": 0,
        "tle_line1": "1 66804U 25278P   25348.25003472 -.01288411  00000+0 -66593-2 0  9990",
        "tle_line2": "2 66804  42.9973 242.7688 0001903 275.3077 125.7612 15.82890614  3204"
      },
      "geometry": {
        "type": "Point",
        "coordinates": [
          100.10936500302243,
          -32.41570445591262
        ]
      }
    }
  ]
}